{
    "links": {
        "self": "http://www.neowsapp.com/rest/v1/neo/3671128?api_key=iIulBulltgU6a56xZRHN4H3l9WmuAYTsLGpBGhQ2"
    },
    "id": "3671128",
    "neo_reference_id": "3671128",
    "name": "(2014 JW55)",
    "designation": "2014 JW55",
    "nasa_jpl_url": "http://ssd.jpl.nasa.gov/sbdb.cgi?sstr=3671128",
    "absolute_magnitude_h": 26.4,
    "estimated_diameter": {
        "kilometers": {
            "estimated_diameter_min": 0.0139493823,
            "estimated_diameter_max": 0.0311917671
        },
        "meters": {
            "estimated_diameter_min": 13.9493822934,
            "estimated_diameter_max": 31.1917670523
        },
        "miles": {
            "estimated_diameter_min": 0.0086677416,
            "estimated_diameter_max": 0.0193816595
        },
        "feet": {
            "estimated_diameter_min": 45.7656914036,
            "estimated_diameter_max": 102.3351970157
        }
    },
    "is_potentially_hazardous_asteroid": false,
    "close_approach_data": [
        {
            "close_approach_date": "2014-05-13",
            "close_approach_date_full": "2014-May-13 11:42",
            "epoch_date_close_approach": 1399981320000,
            "relative_velocity": {
                "kilometers_per_second": "15.692265",
                "kilometers_per_hour": "56492.1540000288",
                "miles_per_hour": "35102.0275785179"
            },
            "miss_distance": {
                "astronomical": "0.009330038",
                "lunar": "3.629384782",
                "kilometers": "1395753.81181906",
                "miles": "867281.202300628"
            },
            "orbiting_body": "Moon"
        },
        {
            "close_approach_date": "2014-05-13",
            "close_approach_date_full": "2014-May-13 17:04",
            "epoch_date_close_approach": 1400000640000,
            "relative_velocity": {
                "kilometers_per_second": "15.5136107588",
                "kilometers_per_hour": "55848.9987315209",
                "miles_per_hour": "34702.3959062608"
            },
            "miss_distance": {
                "astronomical": "0.0111298588",
                "lunar": "4.3295150732",
                "kilometers": "1665003.169880756",
                "miles": "1034584.9954201928"
            },
            "orbiting_body": "Earth"
        },
        {
            "close_approach_date": "2016-05-05",
            "close_approach_date_full": "2016-May-05 21:04",
            "epoch_date_close_approach": 1462482240000,
            "relative_velocity": {
                "kilometers_per_second": "18.0690533854",
                "kilometers_per_hour": "65048.5921875332",
                "miles_per_hour": "40418.6655178592"
            },
            "miss_distance": {
                "astronomical": "0.1160648083",
                "lunar": "45.1492104287",
                "kilometers": "17363048.103638321",
                "miles": "10788897.8037619898"
            },
            "orbiting_body": "Earth"
        }
    ],
    "orbital_data": {
        "orbit_id": "4",
        "orbit_determination_date": "2017-04-06 08:40:32",
        "first_observation_date": "2014-05-10",
        "last_observation_date": "2014-05-12",
        "data_arc_in_days": 2,
        "observations_used": 25,
        "orbit_uncertainty": "8",
        "minimum_orbit_intersection": ".00924447",
        "jupiter_tisserand_invariant": "4.225",
        "epoch_osculation": "2456788.5",
        "eccentricity": ".4456382616533822",
        "semi_major_axis": "1.575120362117494",
        "inclination": "20.76275388224434",
        "ascending_node_longitude": "51.34721088436962",
        "orbital_period": "722.0529482031047",
        "perihelion_distance": ".8731864620486078",
        "perihelion_argument": "238.2542810795906",
        "aphelion_distance": "2.27705426218638",
        "perihelion_time": "2456835.033392443863",
        "mean_anomaly": "336.7994558827305",
        "mean_motion": ".4985783949721321",
        "equinox": "J2000",
        "orbit_class": {
            "orbit_class_type": "APO",
            "orbit_class_description": "Near-Earth asteroid orbits which cross the Earth’s orbit similar to that of 1862 Apollo",
            "orbit_class_range": "a (semi-major axis) > 1.0 AU; q (perihelion) < 1.017 AU"
        }
    },
    "is_sentry_object": false
}